{
  "type": "FeatureCollection",
  "features": [
    {
      "type": "Feature",
      "properties": {
        "norad_id": 54741,
        "name": "GALAXY 35 (G-35)",
        "group": "intelsat",
        "lat": 0.021134942482658688,
        "lon": 113.99181943594364,
        "alt_km": 35796.900630436765,
        "timestamp": "2025-12-03T08:58:45.667227+00:00",
        "meta_object_name": "GALAXY 35 (G-35)",
        "meta_object_id": "2022-170A",
        "meta_epoch": "2025-12-03T03:02:22.064928",
        "meta_mean_motion": 1.00269345,
        "meta_eccentricity": 0.0002838,
        "meta_inclination": 0.0154,
        "meta_ra_of_asc_node": 332.7141,
        "meta_arg_of_pericenter": 288.7802,
        "meta_mean_anomaly": 123.2009,
        "meta_ephemeris_type": 0,
        "meta_classification_type": "U",
        "meta_norad_cat_id": 54741,
        "meta_element_set_no": 999,
        "meta_rev_at_epoch": 1092,
        "meta_bstar": 0,
        "meta_mean_motion_dot": 0,
        "meta_mean_motion_ddot": 0,
        "tle_line1": "1 54741U 22170A   25337.12664427  .00000000  00000+0  00000+0 0  9993",
        "tle_line2": "2 54741   0.0154 332.7141 0002838 288.7802 123.2009  1.00269345 10929"
      },
      "geometry": {
        "type": "Point",
        "coordinates": [
          113.99181943594364,
          0.021134942482658688
        ]
      }
    },
    {
      "type": "Feature",
      "properties": {
        "norad_id": 54742,
        "name": "GALAXY 36 (G-36)",
        "group": "intelsat",
        "lat": -0.006649106556122758,
        "lon": 118.12744927514545,
        "alt_km": 35788.09134133324,
        "timestamp": "2025-12-03T08:58:45.667238+00:00",
        "meta_object_name": "GALAXY 36 (G-36)",
        "meta_object_id": "2022-170B",
        "meta_epoch": "2025-12-03T03:03:36.946080",
        "meta_mean_motion": 1.00270439,
        "meta_eccentricity": 5.99e-05,
        "meta_inclination": 0.0172,
        "meta_ra_of_asc_node": 262.9394,
        "meta_arg_of_pericenter": 344.6619,
        "meta_mean_anomaly": 141.5291,
        "meta_ephemeris_type": 0,
        "meta_classification_type": "U",
        "meta_norad_cat_id": 54742,
        "meta_element_set_no": 999,
        "meta_rev_at_epoch": 1080,
        "meta_bstar": 0,
        "meta_mean_motion_dot": -1.66e-06,
        "meta_mean_motion_ddot": 0,
        "tle_line1": "1 54742U 22170B   25337.12751095 -.00000166  00000+0  00000+0 0  9996",
        "tle_line2": "2 54742   0.0172 262.9394 0000599 344.6619 141.5291  1.00270439 10803"
      },
      "geometry": {
        "type": "Point",
        "coordinates": [
          118.12744927514545,
          -0.006649106556122758
        ]
      }
    },
    {
      "type": "Feature",
      "properties": {
        "norad_id": 57493,
        "name": "GALAXY 37 (G-37)",
        "group": "intelsat",
        "lat": 0.029092685451853315,
        "lon": 80.14298214998756,
        "alt_km": 35796.18477023945,
        "timestamp": "2025-12-03T08:58:45.667250+00:00",
        "meta_object_name": "GALAXY 37 (G-37)",
        "meta_object_id": "2023-112A",
        "meta_epoch": "2025-12-03T04:16:38.815392",
        "meta_mean_motion": 1.00272942,
        "meta_eccentricity": 0.0002466,
        "meta_inclination": 0.0158,
        "meta_ra_of_asc_node": 300.4225,
        "meta_arg_of_pericenter": 317.9605,
        "meta_mean_anomaly": 111.0643,
        "meta_ephemeris_type": 0,
        "meta_classification_type": "U",
        "meta_norad_cat_id": 57493,
        "meta_element_set_no": 999,
        "meta_rev_at_epoch": 857,
        "meta_bstar": 0,
        "meta_mean_motion_dot": 6.7e-07,
        "meta_mean_motion_ddot": 0,
        "tle_line1": "1 57493U 23112A   25337.17822703  .00000067  00000+0  00000+0 0  9998",
        "tle_line2": "2 57493   0.0158 300.4225 0002466 317.9605 111.0643  1.00272942  8572"
      },
      "geometry": {
        "type": "Point",
        "coordinates": [
          80.14298214998756,
          0.029092685451853315
        ]
      }
    }
  ]
}